IRIDIUM 116             
1 43072U 17083C   24325.78753391  .00000692  00000+0  24007-3 0  9996
2 43072  86.4013 201.6288 0001942  79.1582 280.9832 14.34217444361988
IRIDIUM 130             
1 43073U 17083D   24326.17444499  .00000489  00000+0  16764-3 0  9992
2 43073  86.4022 201.6867 0002107  79.0086 281.1346 14.34219409361980
IRIDIUM 151             
1 43074U 17083E   24325.73047059  .00000489  00000+0  16766-3 0  9997
2 43074  86.4015 201.6974 0001870  85.2902 274.8507 14.34216813361944
IRIDIUM 134             
1 43075U 17083F   24326.53596193  .00000200  00000+0  64244-4 0  9991
2 43075  86.4016 201.3616 0001938  80.4471 279.6943 14.34218291362028
IRIDIUM 137             
1 43076U 17083G   24325.71142324  .00000462  00000+0  15794-3 0  9999
2 43076  86.4018 201.7865 0001422  82.2044 277.9313 14.34218491361972
IRIDIUM 141             
1 43077U 17083H   24326.19346841  .00000492  00000+0  16871-3 0  9993
2 43077  86.4013 201.4489 0002263  85.7295 274.4159 14.34220691362041
IRIDIUM 153             
1 43078U 17083J   24326.42471375  .00000891  00000+0  31111-3 0  9998
2 43078  86.4000 169.8819 0002595  93.3207 266.8285 14.34218375363185
IRIDIUM 131             
1 43079U 17083K   24325.20401721  .00000444  00000+0  15157-3 0  9998
2 43079  86.4020 202.0093 0002078  87.8040 272.3394 14.34221058361836
